0 IRIDIUM 33 DEB
1 34693U 97051KQ  13282.30568582  .00003233  00000-0  92440-3 0  1366
2 34693 086.3410 111.5957 0029714 001.3722 119.2979 14.44587602241204
0 IRIDIUM 33 DEB
1 34693U 97051KQ  13284.03891204  .00003290  00000-0  94082-3 0  1376
2 34693 086.3408 110.8474 0029479 355.5921 133.0172 14.44593953241452
0 IRIDIUM 33 DEB
1 34693U 97051KQ  13286.04755934  .00002925  00000-0  83572-3 0  1385
2 34693 086.3402 109.9806 0029235 348.8229 139.2122 14.44604996241745
0 IRIDIUM 33 DEB
1 34693U 97051KQ  13287.48874767  .00003391  00000-0  96954-3 0  1397
2 34693 086.3395 109.3585 0029063 343.9297 074.3580 14.44611391241951
0 IRIDIUM 33 DEB
1 34693U 97051KQ  13288.95640738  .00004262  00000-0  12198-2 0  1406
2 34693 086.3392 108.7252 0028922 338.9159 147.2540 14.44623483242161
0 IRIDIUM 33 DEB
1 34693U 97051KQ  13289.99450535  .00004021  00000-0  11504-2 0  1419
2 34693 086.3393 108.2771 0028948 335.3264 146.1981 14.44630760242319
0 IRIDIUM 33 DEB
1 34693U 97051KQ  13291.50827216  .00003791  00000-0  10841-2 0  1420
2 34693 086.3401 107.6235 0028730 330.0122 099.1279 14.44641909242539
0 IRIDIUM 33 DEB
1 34693U 97051KQ  13292.82368238  .00003990  00000-0  11410-2 0  1435
2 34693 086.3405 107.0556 0028680 325.5517 100.3169 14.44649405242727
0 IRIDIUM 33 DEB
1 34693U 97051KQ  13293.94356162  .00004242  00000-0  12134-2 0  1448
2 34693 086.3407 106.5727 0028618 321.6602 164.7096 14.44656201242888
0 IRIDIUM 33 DEB
1 34693U 97051KQ  13295.45432551  .00004822  00000-0  13797-2 0  1454
2 34693 086.3411 105.9205 0028450 316.2646 102.2509 14.44666944243106
